[{"OBJECT_NAME":"COSMOS 2251","OBJECT_ID":"1993-036A","EPOCH":"2026-04-04T04:39:24.228288","MEAN_MOTION":14.33241283,"ECCENTRICITY":0.00245712,"INCLINATION":74.0369,"RA_OF_ASC_NODE":110.4152,"ARG_OF_PERICENTER":170.615,"MEAN_ANOMALY":189.5466,"EPHEMERIS_TYPE":0,"CLASSIFICATION_TYPE":"U","NORAD_CAT_ID":22675,"ELEMENT_SET_NO":999,"REV_AT_EPOCH":71384,"BSTAR":5.6627122e-5,"MEAN_MOTION_DOT":1.3e-6,"MEAN_MOTION_DDOT":0},{"OBJECT_NAME":"COSMOS 2251 DEB","OBJECT_ID":"1993-036E","EPOCH":"2026-04-04T04:17:08.323584","MEAN_MOTION":14.32612285,"ECCENTRICITY":0.001365,"INCLINATION":74.0343,"RA_OF_ASC_NODE":118.3487,"ARG_OF_PERICENTER":110.3986,"MEAN_ANOMALY":315.4534,"EPHEMERIS_TYPE":0,"CLASSIFICATION_TYPE":"U","NORAD_CAT_ID":33757,"ELEMENT_SET_NO":999,"REV_AT_EPOCH":89606,"BSTAR":5.1735403e-5,"MEAN_MOTION_DOT":1.15e-6,"MEAN_MOTION_DDOT":0},{"OBJECT_NAME":"COSMOS 2251 DEB","OBJECT_ID":"1993-036F","EPOCH":"2026-04-04T05:10:00.458976","MEAN_MOTION":14.52512368,"ECCENTRICITY":0.00146703,"INCLINATION":74.0309,"RA_OF_ASC_NODE":3.0161,"ARG_OF_PERICENTER":46.7358,"MEAN_ANOMALY":107.6902,"EPHEMERIS_TYPE":0,"CLASSIFICATION_TYPE":"U","NORAD_CAT_ID":33758,"ELEMENT_SET_NO":999,"REV_AT_EPOCH":89937,"BSTAR":0.0014764399,"MEAN_MOTION_DOT":6.016e-5,"MEAN_MOTION_DDOT":0},{"OBJECT_NAME":"COSMOS 2251 DEB","OBJECT_ID":"1993-036H","EPOCH":"2026-04-04T05:50:00.759840","MEAN_MOTION":14.35750694,"ECCENTRICITY":0.00199161,"INCLINATION":74.0303,"RA_OF_ASC_NODE":74.9686,"ARG_OF_PERICENTER":153.1044,"MEAN_ANOMALY":313.5255,"EPHEMERIS_TYPE":0,"CLASSIFICATION_TYPE":"U","NORAD_CAT_ID":33760,"ELEMENT_SET_NO":999,"REV_AT_EPOCH":89739,"BSTAR":0.00013714129,"MEAN_MOTION_DOT":3.71e-6,"MEAN_MOTION_DDOT":0},{"OBJECT_NAME":"COSMOS 2251 DEB","OBJECT_ID":"1993-036J","EPOCH":"2026-04-04T06:27:09.815040","MEAN_MOTION":14.42906574,"ECCENTRICITY":0.00213447,"INCLINATION":74.0378,"RA_OF_ASC_NODE":43.3159,"ARG_OF_PERICENTER":102.2823,"MEAN_ANOMALY":26.9571,"EPHEMERIS_TYPE":0,"CLASSIFICATION_TYPE":"U","NORAD_CAT_ID":33761,"ELEMENT_SET_NO":999,"REV_AT_EPOCH":89857,"BSTAR":0.0007408538,"MEAN_MOTION_DOT":2.457e-5,"MEAN_MOTION_DDOT":0},{"OBJECT_NAME":"COSMOS 2251 DEB","OBJECT_ID":"1993-036K","EPOCH":"2026-04-04T01:20:58.456896","MEAN_MOTION":14.33703589,"ECCENTRICITY":0.00146003,"INCLINATION":74.0388,"RA_OF_ASC_NODE":104.6849,"ARG_OF_PERICENTER":147.1751,"MEAN_ANOMALY":272.2333,"EPHEMERIS_TYPE":0,"CLASSIFICATION_TYPE":"U","NORAD_CAT_ID":33762,"ELEMENT_SET_NO":999,"REV_AT_EPOCH":89657,"BSTAR":6.6449375e-5,"MEAN_MOTION_DOT":1.59e-6,"MEAN_MOTION_DDOT":0},{"OBJECT_NAME":"COSMOS 2251 DEB","OBJECT_ID":"1993-036M","EPOCH":"2026-04-04T06:28:23.159136","MEAN_MOTION":14.39764607,"ECCENTRICITY":0.00218283,"INCLINATION":74.0327,"RA_OF_ASC_NODE":64.8207,"ARG_OF_PERICENTER":357.1755,"MEAN_ANOMALY":114.0152,"EPHEMERIS_TYPE":0,"CLASSIFICATION_TYPE":"U","NORAD_CAT_ID":33764,"ELEMENT_SET_NO":999,"REV_AT_EPOCH":89776,"BSTAR":0.00051497336,"MEAN_MOTION_DOT":1.592e-5,"MEAN_MOTION_DDOT":0},{"OBJECT_NAME":"COSMOS 2251 DEB","OBJECT_ID":"1993-036N","EPOCH":"2026-04-03T16:57:59.366304","MEAN_MOTION":15.18901659,"ECCENTRICITY":0.00549187,"INCLINATION":74.0013,"RA_OF_ASC_NODE":300.0822,"ARG_OF_PERICENTER":1.1682,"MEAN_ANOMALY":358.9632,"EPHEMERIS_TYPE":0,"CLASSIFICATION_TYPE":"U","NORAD_CAT_ID":33765,"ELEMENT_SET_NO":999,"REV_AT_EPOCH":91313,"BSTAR":0.00205712,"MEAN_MOTION_DOT":0.0004491,"MEAN_MOTION_DDOT":0},{"OBJECT_NAME":"COSMOS 2251 DEB","OBJECT_ID":"1993-036P","EPOCH":"2026-04-03T21:30:03.199968","MEAN_MOTION":14.35350864,"ECCENTRICITY":0.0063368,"INCLINATION":74.185,"RA_OF_ASC_NODE":291.2388,"ARG_OF_PERICENTER":103.2641,"MEAN_ANOMALY":257.5591,"EPHEMERIS_TYPE":0,"CLASSIFICATION_TYPE":"U","NORAD_CAT_ID":33766,"ELEMENT_SET_NO":999,"REV_AT_EPOCH":89354,"BSTAR":0.0010295239,"MEAN_MOTION_DOT":2.997e-5,"MEAN_MOTION_DDOT":0},{"OBJECT_NAME":"COSMOS 2251 DEB","OBJECT_ID":"1993-036R","EPOCH":"2026-04-04T07:15:09.729216","MEAN_MOTION":13.58568712,"ECCENTRICITY":0.0367537,"INCLINATION":74.0699,"RA_OF_ASC_NODE":38.1657,"ARG_OF_PERICENTER":171.2713,"MEAN_ANOMALY":351.2068,"EPHEMERIS_TYPE":0,"CLASSIFICATION_TYPE":"U","NORAD_CAT_ID":33768,"ELEMENT_SET_NO":999,"REV_AT_EPOCH":84824,"BSTAR":0.00036569846,"MEAN_MOTION_DOT":3.95e-6,"MEAN_MOTION_DDOT":0},{"OBJECT_NAME":"COSMOS 2251 DEB","OBJECT_ID":"1993-036U","EPOCH":"2026-04-04T00:51:43.621056","MEAN_MOTION":14.7342724,"ECCENTRICITY":0.00131029,"INCLINATION":74.0439,"RA_OF_ASC_NODE":312.3935,"ARG_OF_PERICENTER":315.24,"MEAN_ANOMALY":195.0038,"EPHEMERIS_TYPE":0,"CLASSIFICATION_TYPE":"U","NORAD_CAT_ID":33779,"ELEMENT_SET_NO":999,"REV_AT_EPOCH":90180,"BSTAR":0.0041663731,"MEAN_MOTION_DOT":0.00027143,"MEAN_MOTION_DDOT":0},{"OBJECT_NAME":"COSMOS 2251 DEB","OBJECT_ID":"1993-036X","EPOCH":"2026-04-03T22:45:37.938528","MEAN_MOTION":14.40774895,"ECCENTRICITY":0.00190349,"INCLINATION":74.0315,"RA_OF_ASC_NODE":69.9694,"ARG_OF_PERICENTER":115.612,"MEAN_ANOMALY":308.7624,"EPHEMERIS_TYPE":0,"CLASSIFICATION_TYPE":"U","NORAD_CAT_ID":33782,"ELEMENT_SET_NO":999,"REV_AT_EPOCH":89742,"BSTAR":0.00063024839,"MEAN_MOTION_DOT":1.995e-5,"MEAN_MOTION_DDOT":0},{"OBJECT_NAME":"COSMOS 2251 DEB","OBJECT_ID":"1993-036AA","EPOCH":"2026-04-04T07:19:19.200576","MEAN_MOTION":14.73402279,"ECCENTRICITY":0.00173754,"INCLINATION":73.8667,"RA_OF_ASC_NODE":198.7183,"ARG_OF_PERICENTER":117.3879,"MEAN_ANOMALY":307.0652,"EPHEMERIS_TYPE":0,"CLASSIFICATION_TYPE":"U","NORAD_CAT_ID":33785,"ELEMENT_SET_NO":999,"REV_AT_EPOCH":90163,"BSTAR":0.0035902245,"MEAN_MOTION_DOT":0.00023382,"MEAN_MOTION_DDOT":0},{"OBJECT_NAME":"COSMOS 2251 DEB","OBJECT_ID":"1993-036AE","EPOCH":"2026-04-03T19:25:00.177312","MEAN_MOTION":13.88984381,"ECCENTRICITY":0.02398483,"INCLINATION":74.0616,"RA_OF_ASC_NODE":257.1764,"ARG_OF_PERICENTER":346.3536,"MEAN_ANOMALY":138.4039,"EPHEMERIS_TYPE":0,"CLASSIFICATION_TYPE":"U","NORAD_CAT_ID":33789,"ELEMENT_SET_NO":999,"REV_AT_EPOCH":86651,"BSTAR":0.00039897372,"MEAN_MOTION_DOT":5.84e-6,"MEAN_MOTION_DDOT":0},{"OBJECT_NAME":"COSMOS 2251 DEB","OBJECT_ID":"1993-036AG","EPOCH":"2026-04-04T07:09:27.260352","MEAN_MOTION":14.43804866,"ECCENTRICITY":0.0029489,"INCLINATION":74.1753,"RA_OF_ASC_NODE":190.1831,"ARG_OF_PERICENTER":349.574,"MEAN_ANOMALY":70.0442,"EPHEMERIS_TYPE":0,"CLASSIFICATION_TYPE":"U","NORAD_CAT_ID":33791,"ELEMENT_SET_NO":999,"REV_AT_EPOCH":89676,"BSTAR":0.0011806125,"MEAN_MOTION_DOT":4.017e-5,"MEAN_MOTION_DDOT":0},{"OBJECT_NAME":"COSMOS 2251 DEB","OBJECT_ID":"1993-036AH","EPOCH":"2026-04-04T06:19:43.037184","MEAN_MOTION":13.46063422,"ECCENTRICITY":0.04302682,"INCLINATION":73.9004,"RA_OF_ASC_NODE":165.597,"ARG_OF_PERICENTER":210.6797,"MEAN_ANOMALY":209.5444,"EPHEMERIS_TYPE":0,"CLASSIFICATION_TYPE":"U","NORAD_CAT_ID":33792,"ELEMENT_SET_NO":999,"REV_AT_EPOCH":83956,"BSTAR":0.0011944343,"MEAN_MOTION_DOT":1.231e-5,"MEAN_MOTION_DDOT":0}]
