COSMOS 2251             
1 22675U 93036A   26094.19403042  .00000130  00000+0  56627-4 0  9990
2 22675  74.0369 110.4152 0024571 170.6150 189.5466 14.33241283713849
COSMOS 2251 DEB         
1 33757U 93036E   26094.17856856  .00000115  00000+0  51735-4 0  9994
2 33757  74.0343 118.3487 0013650 110.3986 315.4534 14.32612285896061
COSMOS 2251 DEB         
1 33758U 93036F   26094.21528309  .00006016  00000+0  14764-2 0  9994
2 33758  74.0309   3.0161 0014670  46.7358 107.6902 14.52512368899371
COSMOS 2251 DEB         
1 33760U 93036H   26094.24306435  .00000371  00000+0  13714-3 0  9997
2 33760  74.0303  74.9686 0019916 153.1044 313.5255 14.35750694897396
COSMOS 2251 DEB         
1 33761U 93036J   26094.26886360  .00002457  00000+0  74085-3 0  9995
2 33761  74.0378  43.3159 0021344 102.2823  26.9571 14.42906574898577
COSMOS 2251 DEB         
1 33762U 93036K   26094.05623214  .00000159  00000+0  66449-4 0  9993
2 33762  74.0388 104.6849 0014600 147.1751 272.2333 14.33703589896572
COSMOS 2251 DEB         
1 33764U 93036M   26094.26971249  .00001592  00000+0  51497-3 0  9990
2 33764  74.0327  64.8207 0021828 357.1755 114.0152 14.39764607897767
COSMOS 2251 DEB         
1 33765U 93036N   26093.70693711  .00044910  00000+0  20571-2 0  9993
2 33765  74.0013 300.0822 0054918   1.1682 358.9632 15.18901659913139
COSMOS 2251 DEB         
1 33766U 93036P   26093.89587037  .00002997  00000+0  10295-2 0  9998
2 33766  74.1850 291.2388 0063368 103.2641 257.5591 14.35350864893540
COSMOS 2251 DEB         
1 33768U 93036R   26094.30219594  .00000395  00000+0  36570-3 0  9992
2 33768  74.0699  38.1657 0367537 171.2713 351.2068 13.58568712848244
COSMOS 2251 DEB         
1 33779U 93036U   26094.03592154  .00027143  00000+0  41664-2 0  9999
2 33779  74.0439 312.3935 0013102 315.2400 195.0038 14.73427240901804
COSMOS 2251 DEB         
1 33782U 93036X   26093.94835577  .00001995  00000+0  63025-3 0  9994
2 33782  74.0315  69.9694 0019034 115.6120 308.7624 14.40774895897420
COSMOS 2251 DEB         
1 33785U 93036AA  26094.30508334  .00023382  00000+0  35902-2 0  9992
2 33785  73.8667 198.7183 0017375 117.3879 307.0652 14.73402279901632
COSMOS 2251 DEB         
1 33789U 93036AE  26093.80902983  .00000584  00000+0  39897-3 0  9995
2 33789  74.0616 257.1764 0239848 346.3536 138.4039 13.88984381866519
COSMOS 2251 DEB         
1 33791U 93036AG  26094.29823218  .00004017  00000+0  11806-2 0  9999
2 33791  74.1753 190.1831 0029489 349.5740  70.0442 14.43804866896766
COSMOS 2251 DEB         
1 33792U 93036AH  26094.26369256  .00001231  00000+0  11944-2 0  9992
2 33792  73.9004 165.5970 0430268 210.6797 209.5444 13.46063422839567
